FLOCK 4G-10             
1 62670U 25009BP  26068.70827885  .00013952  00000+0  52624-3 0  9995
2 62670  97.3967 150.5883 0003469 341.4844  18.6269 15.27155944121340
STARLINK-33893          
1 64253U 25119W   26068.01363454  .00034589  00000+0  12599-2 0  9992
2 64253  42.9969 311.0709 0001277 280.8883  79.1825 15.27597675 44066
